{
  "norad_id": 64596,
  "name": "STARLINK-34510",
  "history": [
    {
      "epoch": "2026-03-28T18:23:10.072320Z",
      "apogee_km": 475.9143392165206,
      "perigee_km": 474.47267261129673,
      "latitude_deg": -1.035502908911936e-06,
      "longitude_deg": 144.79230377710178,
      "height_km": 476.04816341322515,
      "semi_major_axis_km": 6853.330505913908,
      "eccentricity": 0.00010518,
      "inclination_deg": 53.1596,
      "raan_deg": 246.7661,
      "arg_perigee_deg": 86.5262,
      "mean_anomaly_deg": 273.5859,
      "mean_motion_rev_day": 15.30207222
    }
  ]
}