{"fetched_at":"2026-03-30T06:02:59Z","count":15439,"tles":[{"name":"STARLINK-34510","line1":"1 64596U 25137C   26087.76608880  .00018647  00000+0  63998-3 0  9997","line2":"2 64596  53.1596 246.7661 0001051  86.5262 273.5859 15.30207222 43650","category":"Starlink"}]}